start=new Date('2021-12-14T00:00:00.000Z').valueOf();
sats=[{"BSTAR":"0.00004733300000","MEAN_MOTION":"15.06383773","TLE_LINE2":"2 45710  53.0525 140.7795 0001910  95.5623 264.5584 15.06383773 86004","OBJECT_TYPE":"PAYLOAD","REV_AT_EPOCH":"8600","RCS_SIZE":"LARGE","MEAN_MOTION_DDOT":"0.0000000000000","OBJECT_NAME":"STARLINK-1423","MEAN_ANOMALY":"264.5584","MEAN_ELEMENT_THEORY":"SGP4","ARG_OF_PERICENTER":"95.5623","RA_OF_ASC_NODE":"140.7795","EPHEMERIS_TYPE":"0","CENTER_NAME":"EARTH","NORAD_CAT_ID":"45710","DECAY_DATE":null,"LAUNCH_DATE":"2020-06-04","REF_FRAME":"TEME","SEMIMAJOR_AXIS":"6925.398","FILE":"3239585","INCLINATION":"53.0525","PERIAPSIS":"545.941","APOAPSIS":"548.586","CLASSIFICATION_TYPE":"U","SITE":"AFETR","ELEMENT_SET_NO":"999","TIME_SYSTEM":"UTC","OBJECT_ID":"2020-035BF","GP_ID":"191658559","TLE_LINE1":"1 45710U 20035BF  21347.82222090  .00000423  00000-0  47333-4 0  9992","COUNTRY_CODE":"US","EPOCH":"2021-12-13T19:43:59.885760","MEAN_MOTION_DOT":"0.00000423","ECCENTRICITY":"0.00019100","PERIOD":"95.593"},{"RCS_SIZE":"LARGE","REV_AT_EPOCH":"8600","OBJECT_TYPE":"PAYLOAD","TLE_LINE2":"2 45711  53.0543 140.5703 0002151  87.8450 272.2785 15.06401490 86008","MEAN_MOTION":"15.06401490","BSTAR":"-0.00007351300000","EPHEMERIS_TYPE":"0","ARG_OF_PERICENTER":"87.8450","RA_OF_ASC_NODE":"140.5703","MEAN_ANOMALY":"272.2785","MEAN_ELEMENT_THEORY":"SGP4","OBJECT_NAME":"STARLINK-1433","MEAN_MOTION_DDOT":"0.0000000000000","DECAY_DATE":null,"NORAD_CAT_ID":"45711","CENTER_NAME":"EARTH","FILE":"3239585","SEMIMAJOR_AXIS":"6925.344","REF_FRAME":"TEME","LAUNCH_DATE":"2020-06-04","SITE":"AFETR","CLASSIFICATION_TYPE":"U","APOAPSIS":"548.699","PERIAPSIS":"545.719","INCLINATION":"53.0543","COUNTRY_CODE":"US","TLE_LINE1":"1 45711U 20035BG  21347.87011975 -.00001377  00000-0 -73513-4 0  9996","GP_ID":"191658312","OBJECT_ID":"2020-035BG","TIME_SYSTEM":"UTC","ELEMENT_SET_NO":"999","PERIOD":"95.592","ECCENTRICITY":"0.00021510","MEAN_MOTION_DOT":"-0.00001377","EPOCH":"2021-12-13T20:52:58.346400"},{"TIME_SYSTEM":"UTC","GP_ID":"191657558","OBJECT_ID":"2020-035BH","TLE_LINE1":"1 45712U 20035BH  21347.86644908  .00000349  00000-0  42357-4 0  9992","COUNTRY_CODE":"US","ELEMENT_SET_NO":"999","ECCENTRICITY":"0.00019770","PERIOD":"95.593","EPOCH":"2021-12-13T20:47:41.200512","MEAN_MOTION_DOT":"0.00000349","SITE":"AFETR","INCLINATION":"53.0542","APOAPSIS":"548.621","PERIAPSIS":"545.883","CLASSIFICATION_TYPE":"U","DECAY_DATE":null,"CENTER_NAME":"EARTH","NORAD_CAT_ID":"45712","FILE":"3239585","LAUNCH_DATE":"2020-06-04","REF_FRAME":"TEME","SEMIMAJOR_AXIS":"6925.387","MEAN_MOTION":"15.06387371","OBJECT_TYPE":"PAYLOAD","TLE_LINE2":"2 45712  53.0542 140.5845 0001977  96.7049 263.4165 15.06387371 86019","REV_AT_EPOCH":"8601","RCS_SIZE":"LARGE","BSTAR":"0.00004235700000","RA_OF_ASC_NODE":"140.5845","ARG_OF_PERICENTER":"96.7049","EPHEMERIS_TYPE":"0","MEAN_MOTION_DDOT":"0.0000000000000","OBJECT_NAME":"STARLINK-1434","MEAN_ANOMALY":"263.4165","MEAN_ELEMENT_THEORY":"SGP4"},{"TIME_SYSTEM":"UTC","GP_ID":"191657809","OBJECT_ID":"2020-035BJ","TLE_LINE1":"1 45713U 20035BJ  21347.88671715  .00000260  00000-0  36399-4 0  9992","COUNTRY_CODE":"US","ELEMENT_SET_NO":"999","ECCENTRICITY":"0.00020840","PERIOD":"95.592","EPOCH":"2021-12-13T21:16:52.361760","MEAN_MOTION_DOT":"0.00000260","SITE":"AFETR","INCLINATION":"53.0527","PERIAPSIS":"545.772","APOAPSIS":"548.658","CLASSIFICATION_TYPE":"U","DECAY_DATE":null,"CENTER_NAME":"EARTH","NORAD_CAT_ID":"45713","FILE":"3239585","LAUNCH_DATE":"2020-06-04","REF_FRAME":"TEME","SEMIMAJOR_AXIS":"6925.350","MEAN_MOTION":"15.06399505","OBJECT_TYPE":"PAYLOAD","TLE_LINE2":"2 45713  53.0527 160.4938 0002084  91.8259 268.2968 15.06399505 85729","RCS_SIZE":"LARGE","REV_AT_EPOCH":"8572","BSTAR":"0.00003639900000","ARG_OF_PERICENTER":"91.8259","RA_OF_ASC_NODE":"160.4938","EPHEMERIS_TYPE":"0","OBJECT_NAME":"STARLINK-1436","MEAN_MOTION_DDOT":"0.0000000000000","MEAN_ANOMALY":"268.2968","MEAN_ELEMENT_THEORY":"SGP4"},{"TLE_LINE2":"2 45714  53.0535 140.5371 0002008  98.1544 261.9673 15.06389880 86013","OBJECT_TYPE":"PAYLOAD","MEAN_MOTION":"15.06389880","REV_AT_EPOCH":"8601","RCS_SIZE":"LARGE","BSTAR":"-0.00006430100000","EPHEMERIS_TYPE":"0","ARG_OF_PERICENTER":"98.1544","RA_OF_ASC_NODE":"140.5371","OBJECT_NAME":"STARLINK-1437","MEAN_MOTION_DDOT":"0.0000000000000","MEAN_ELEMENT_THEORY":"SGP4","MEAN_ANOMALY":"261.9673","DECAY_DATE":null,"CENTER_NAME":"EARTH","NORAD_CAT_ID":"45714","FILE":"3239585","REF_FRAME":"TEME","LAUNCH_DATE":"2020-06-04","SEMIMAJOR_AXIS":"6925.380","SITE":"AFETR","INCLINATION":"53.0535","CLASSIFICATION_TYPE":"U","APOAPSIS":"548.635","PERIAPSIS":"545.854","GP_ID":"191658060","OBJECT_ID":"2020-035BK","TIME_SYSTEM":"UTC","COUNTRY_CODE":"US","TLE_LINE1":"1 45714U 20035BK  21347.87749410 -.00001239  00000-0 -64301-4 0  9993","ELEMENT_SET_NO":"999","ECCENTRICITY":"0.00020080","PERIOD":"95.593","MEAN_MOTION_DOT":"-0.00001239","EPOCH":"2021-12-13T21:03:35.490240"},{"MEAN_MOTION_DOT":"0.00031698","EPOCH":"2021-12-13T19:17:13.750368","ECCENTRICITY":"0.00069600","PERIOD":"91.323","ELEMENT_SET_NO":"999","GP_ID":"191658812","OBJECT_ID":"2020-035BM","TIME_SYSTEM":"UTC","COUNTRY_CODE":"US","TLE_LINE1":"1 45716U 20035BM  21347.80363137  .00031698  00000-0  19591-3 0  9996","INCLINATION":"53.0010","CLASSIFICATION_TYPE":"U","PERIAPSIS":"334.789","APOAPSIS":"344.140","SITE":"AFETR","REF_FRAME":"TEME","LAUNCH_DATE":"2020-06-04","SEMIMAJOR_AXIS":"6717.600","FILE":"3239585","CENTER_NAME":"EARTH","NORAD_CAT_ID":"45716","DECAY_DATE":null,"OBJECT_NAME":"STARLINK-1439","MEAN_MOTION_DDOT":"0.0000000000000","MEAN_ANOMALY":"264.7259","MEAN_ELEMENT_THEORY":"SGP4","EPHEMERIS_TYPE":"0","RA_OF_ASC_NODE":"334.5993","ARG_OF_PERICENTER":"95.4554","BSTAR":"0.00019591000000","OBJECT_TYPE":"PAYLOAD","TLE_LINE2":"2 45716  53.0010 334.5993 0006960  95.4554 264.7259 15.76817974 88313","MEAN_MOTION":"15.76817974","RCS_SIZE":"LARGE","REV_AT_EPOCH":"8831"},{"SITE":"AFETR","INCLINATION":"53.0548","CLASSIFICATION_TYPE":"U","PERIAPSIS":"545.970","APOAPSIS":"548.438","GP_ID":"191657559","OBJECT_ID":"2020-038A","TIME_SYSTEM":"UTC","COUNTRY_CODE":"US","TLE_LINE1":"1 45730U 20038A   21347.68950370  .00001077  00000-0  91189-4 0  9994","ELEMENT_SET_NO":"999","ECCENTRICITY":"0.00017820","PERIOD":"95.592","MEAN_MOTION_DOT":"0.00001077","EPOCH":"2021-12-13T16:32:53.119680","OBJECT_TYPE":"PAYLOAD","TLE_LINE2":"2 45730  53.0548 341.3626 0001782  63.7857 296.3315 15.06403233 83035","MEAN_MOTION":"15.06403233","REV_AT_EPOCH":"8303","RCS_SIZE":"LARGE","BSTAR":"0.00009118900000","EPHEMERIS_TYPE":"0","ARG_OF_PERICENTER":"63.7857","RA_OF_ASC_NODE":"341.3626","OBJECT_NAME":"STARLINK-1461","MEAN_MOTION_DDOT":"0.0000000000000","MEAN_ANOMALY":"296.3315","MEAN_ELEMENT_THEORY":"SGP4","DECAY_DATE":null,"CENTER_NAME":"EARTH","NORAD_CAT_ID":"45730","FILE":"3239585","REF_FRAME":"TEME","LAUNCH_DATE":"2020-06-13","SEMIMAJOR_AXIS":"6925.339"},{"DECAY_DATE":null,"NORAD_CAT_ID":"45731","CENTER_NAME":"EARTH","FILE":"3239585","SEMIMAJOR_AXIS":"6925.373","REF_FRAME":"TEME","LAUNCH_DATE":"2020-06-13","REV_AT_EPOCH":"8302","RCS_SIZE":"LARGE","OBJECT_TYPE":"PAYLOAD","TLE_LINE2":"2 45731  53.0552 341.3131 0001998  55.1181 304.9996 15.06392099 83023","MEAN_MOTION":"15.06392099","BSTAR":"-0.00003000400000","EPHEMERIS_TYPE":"0","RA_OF_ASC_NODE":"341.3131","ARG_OF_PERICENTER":"55.1181","MEAN_ANOMALY":"304.9996","MEAN_ELEMENT_THEORY":"SGP4","OBJECT_NAME":"STARLINK-1465","MEAN_MOTION_DDOT":"0.0000000000000","COUNTRY_CODE":"US","TLE_LINE1":"1 45731U 20038B   21347.70424967 -.00000728  00000-0 -30004-4 0  9999","GP_ID":"191657810","OBJECT_ID":"2020-038B","TIME_SYSTEM":"UTC","ELEMENT_SET_NO":"999","PERIOD":"95.593","ECCENTRICITY":"0.00019980","MEAN_MOTION_DOT":"-0.00000728","EPOCH":"2021-12-13T16:54:07.171488","SITE":"AFETR","CLASSIFICATION_TYPE":"U","PERIAPSIS":"545.854","APOAPSIS":"548.621","INCLINATION":"53.0552"},{"OBJECT_ID":"2020-038C","GP_ID":"191658061","TIME_SYSTEM":"UTC","COUNTRY_CODE":"US","TLE_LINE1":"1 45732U 20038C   21347.69319939 -.00001984  00000-0 -11436-3 0  9992","ELEMENT_SET_NO":"999","ECCENTRICITY":"0.00017870","PERIOD":"95.594","MEAN_MOTION_DOT":"-0.00001984","EPOCH":"2021-12-13T16:38:12.427296","SITE":"AFETR","INCLINATION":"53.0554","CLASSIFICATION_TYPE":"U","PERIAPSIS":"546.043","APOAPSIS":"548.518","DECAY_DATE":null,"CENTER_NAME":"EARTH","NORAD_CAT_ID":"45732","FILE":"3239585","REF_FRAME":"TEME","LAUNCH_DATE":"2020-06-13","SEMIMAJOR_AXIS":"6925.416","TLE_LINE2":"2 45732  53.0554 341.3534 0001787  61.4443 298.6726 15.06378106 83023","OBJECT_TYPE":"PAYLOAD","MEAN_MOTION":"15.06378106","RCS_SIZE":"LARGE","REV_AT_EPOCH":"8302","BSTAR":"-0.00011436000000","EPHEMERIS_TYPE":"0","ARG_OF_PERICENTER":"61.4443","RA_OF_ASC_NODE":"341.3534","MEAN_MOTION_DDOT":"0.0000000000000","OBJECT_NAME":"STARLINK-1466","MEAN_ANOMALY":"298.6726","MEAN_ELEMENT_THEORY":"SGP4"},{"ECCENTRICITY":"0.00019940","PERIOD":"95.592","EPOCH":"2021-12-13T16:48:48.951648","MEAN_MOTION_DOT":"-0.00000442","TIME_SYSTEM":"UTC","OBJECT_ID":"2020-038D","GP_ID":"191658813","TLE_LINE1":"1 45733U 20038D   21347.70056657 -.00000442  00000-0 -10746-4 0  9992","COUNTRY_CODE":"US","ELEMENT_SET_NO":"999","SITE":"AFETR","INCLINATION":"53.0561","PERIAPSIS":"545.848","APOAPSIS":"548.610","CLASSIFICATION_TYPE":"U","FILE":"3239585","LAUNCH_DATE":"2020-06-13","REF_FRAME":"TEME","SEMIMAJOR_AXIS":"6925.364","DECAY_DATE":null,"CENTER_NAME":"EARTH","NORAD_CAT_ID":"45733","RA_OF_ASC_NODE":"341.3324","ARG_OF_PERICENTER":"53.6306","EPHEMERIS_TYPE":"0","MEAN_MOTION_DDOT":"0.0000000000000","OBJECT_NAME":"STARLINK-1467","MEAN_ELEMENT_THEORY":"SGP4","MEAN_ANOMALY":"306.4866","MEAN_MOTION":"15.06394842","TLE_LINE2":"2 45733  53.0561 341.3324 0001994  53.6306 306.4866 15.06394842 83028","OBJECT_TYPE":"PAYLOAD","REV_AT_EPOCH":"8302","RCS_SIZE":"LARGE","BSTAR":"-0.00001074600000"}];
